{"type": "FeatureCollection", "features": [ {"type": "Feature", "properties": {"norad_id": 66329, "name": "STARLINK-35505", "group": "last-30-days", "lat": -34.77558008973047, "lon": -112.71584041972508, "alt_km": 416.14195963579823, "timestamp": "2025-12-06T20:37:54.810876+00:00", "meta": {"OBJECT_NAME": "STARLINK-35505", "OBJECT_ID": "2025-253L", "EPOCH": "2025-12-05T20:25:59.154240", "MEAN_MOTION": 15.50829016, "ECCENTRICITY": 0.00016573, "INCLINATION": 43.0002, "RA_OF_ASC_NODE": 25.0138, "ARG_OF_PERICENTER": 320.9763, "MEAN_ANOMALY": 39.0978, "EPHEMERIS_TYPE": 0, "CLASSIFICATION_TYPE": "U", "NORAD_CAT_ID": 66329, "ELEMENT_SET_NO": 999, "REV_AT_EPOCH": 586, "BSTAR": 0.0032245979, "MEAN_MOTION_DOT": 0.00195359, "MEAN_MOTION_DDOT": 0}, "tle": {"line1": "1 66329U 25253L   25339.85137910  .00195359  00000+0  32246-2 0  9999", "line2": "2 66329  43.0002  25.0138 0001657 320.9763  39.0978 15.50829016  5867"}}, "geometry": {"type": "Point", "coordinates": [-112.71584041972508, -34.77558008973047]}}, {"type": "Feature", "properties": {"norad_id": 66330, "name": "STARLINK-35512", "group": "last-30-days", "lat": 19.918399637115318, "lon": 42.4925780465292, "alt_km": 441.14922750736696, "timestamp": "2025-12-06T20:37:54.810888+00:00", "meta": {"OBJECT_NAME": "STARLINK-35512", "OBJECT_ID": "2025-253M", "EPOCH": "2025-12-06T11:10:02.569728", "MEAN_MOTION": 15.40717684, "ECCENTRICITY": 0.00011327, "INCLINATION": 43.002, "RA_OF_ASC_NODE": 21.884, "ARG_OF_PERICENTER": 255.6782, "MEAN_ANOMALY": 104.3949, "EPHEMERIS_TYPE": 0, "CLASSIFICATION_TYPE": "U", "NORAD_CAT_ID": 66330, "ELEMENT_SET_NO": 999, "REV_AT_EPOCH": 595, "BSTAR": 0.0020939065, "MEAN_MOTION_DOT": 0.00088233, "MEAN_MOTION_DDOT": 0}, "tle": {"line1": "1 66330U 25253M   25340.46530752  .00088233  00000+0  20939-2 0  9999", "line2": "2 66330  43.0020  21.8840 0001132 255.6782 104.3949 15.40717684  5956"}}, "geometry": {"type": "Point", "coordinates": [42.4925780465292, 19.918399637115318]}}, {"type": "Feature", "properties": {"norad_id": 66331, "name": "STARLINK-35257", "group": "last-30-days", "lat": -35.45721809288271, "lon": -111.05256854177628, "alt_km": 438.0857807230559, "timestamp": "2025-12-06T20:37:54.810899+00:00", "meta": {"OBJECT_NAME": "STARLINK-35257", "OBJECT_ID": "2025-253N", "EPOCH": "2025-12-06T14:00:01.999872", "MEAN_MOTION": 15.44740083, "ECCENTRICITY": 0.00012448, "INCLINATION": 43, "RA_OF_ASC_NODE": 20.7081, "ARG_OF_PERICENTER": 292.233, "MEAN_ANOMALY": 208.2629, "EPHEMERIS_TYPE": 0, "CLASSIFICATION_TYPE": "U", "NORAD_CAT_ID": 66331, "ELEMENT_SET_NO": 999, "REV_AT_EPOCH": 567, "BSTAR": -0.046761734, "MEAN_MOTION_DOT": -0.01995907, "MEAN_MOTION_DDOT": 0}, "tle": {"line1": "1 66331U 25253N   25340.58335648 -.01995907  00000+0 -46762-1 0  9999", "line2": "2 66331  43.0000  20.7081 0001244 292.2330 208.2629 15.44740083  5671"}}, "geometry": {"type": "Point", "coordinates": [-111.05256854177628, -35.45721809288271]}}, {"type": "Feature", "properties": {"norad_id": 66332, "name": "STARLINK-35322", "group": "last-30-days", "lat": 37.36760321533412, "lon": 144.36840073067643, "alt_km": 438.7296540544821, "timestamp": "2025-12-06T20:37:54.810911+00:00", "meta": {"OBJECT_NAME": "STARLINK-35322", "OBJECT_ID": "2025-253P", "EPOCH": "2025-12-06T14:00:01.999872", "MEAN_MOTION": 15.40675942, "ECCENTRICITY": 9.861e-05, "INCLINATION": 43.001, "RA_OF_ASC_NODE": 20.9937, "ARG_OF_PERICENTER": 267.8037, "MEAN_ANOMALY": 114.9239, "EPHEMERIS_TYPE": 0, "CLASSIFICATION_TYPE": "U", "NORAD_CAT_ID": 66332, "ELEMENT_SET_NO": 999, "REV_AT_EPOCH": 594, "BSTAR": 0.00043845461, "MEAN_MOTION_DOT": 0.0001804, "MEAN_MOTION_DDOT": 0}, "tle": {"line1": "1 66332U 25253P   25340.58335648  .00018040  00000+0  43845-3 0  9992", "line2": "2 66332  43.0010  20.9937 0000986 267.8037 114.9239 15.40675942  5946"}}, "geometry": {"type": "Point", "coordinates": [144.36840073067643, 37.36760321533412]}}, {"type": "Feature", "properties": {"norad_id": 66333, "name": "STARLINK-35400", "group": "last-30-days", "lat": -7.976966459583983, "lon": -152.13203118663776, "alt_km": 444.8609336876434, "timestamp": "2025-12-06T20:37:54.810922+00:00", "meta": {"OBJECT_NAME": "STARLINK-35400", "OBJECT_ID": "2025-253Q", "EPOCH": "2025-12-06T14:00:01.999872", "MEAN_MOTION": 15.4059146, "ECCENTRICITY": 0.00014923, "INCLINATION": 43.0002, "RA_OF_ASC_NODE": 20.8116, "ARG_OF_PERICENTER": 278.0604, "MEAN_ANOMALY": 179.3307, "EPHEMERIS_TYPE": 0, "CLASSIFICATION_TYPE": "U", "NORAD_CAT_ID": 66333, "ELEMENT_SET_NO": 999, "REV_AT_EPOCH": 594, "BSTAR": 0.0033242338, "MEAN_MOTION_DOT": 0.00140639, "MEAN_MOTION_DDOT": 0}, "tle": {"line1": "1 66333U 25253Q   25340.58335648  .00140639  00000+0  33242-2 0  9992", "line2": "2 66333  43.0002  20.8116 0001492 278.0604 179.3307 15.40591460  5946"}}, "geometry": {"type": "Point", "coordinates": [-152.13203118663776, -7.976966459583983]}}, {"type": "Feature", "properties": {"norad_id": 66334, "name": "STARLINK-35407", "group": "last-30-days", "lat": 38.96534376139681, "lon": 79.73870967647119, "alt_km": 438.79240905249753, "timestamp": "2025-12-06T20:37:54.810934+00:00", "meta": {"OBJECT_NAME": "STARLINK-35407", "OBJECT_ID": "2025-253R", "EPOCH": "2025-12-06T14:00:01.999872", "MEAN_MOTION": 15.40656038, "ECCENTRICITY": 0.00015368, "INCLINATION": 43.0008, "RA_OF_ASC_NODE": 21.1152, "ARG_OF_PERICENTER": 267.9039, "MEAN_ANOMALY": 65.0639, "EPHEMERIS_TYPE": 0, "CLASSIFICATION_TYPE": "U", "NORAD_CAT_ID": 66334, "ELEMENT_SET_NO": 999, "REV_AT_EPOCH": 594, "BSTAR": 0.0021373806, "MEAN_MOTION_DOT": 0.00089907, "MEAN_MOTION_DDOT": 0}, "tle": {"line1": "1 66334U 25253R   25340.58335648  .00089907  00000+0  21374-2 0  9996", "line2": "2 66334  43.0008  21.1152 0001536 267.9039  65.0639 15.40656038  5947"}}, "geometry": {"type": "Point", "coordinates": [79.73870967647119, 38.96534376139681]}}, {"type": "Feature", "properties": {"norad_id": 66335, "name": "STARLINK-35417", "group": "last-30-days", "lat": -5.023840844457854, "lon": 14.286048926104344, "alt_km": 444.13725460350634, "timestamp": "2025-12-06T20:37:54.810945+00:00", "meta": {"OBJECT_NAME": "STARLINK-35417", "OBJECT_ID": "2025-253S", "EPOCH": "2025-12-06T09:46:21.847584", "MEAN_MOTION": 15.40614696, "ECCENTRICITY": 8.192e-05, "INCLINATION": 43.0007, "RA_OF_ASC_NODE": 22.3071, "ARG_OF_PERICENTER": 252.95, "MEAN_ANOMALY": 107.1267, "EPHEMERIS_TYPE": 0, "CLASSIFICATION_TYPE": "U", "NORAD_CAT_ID": 66335, "ELEMENT_SET_NO": 999, "REV_AT_EPOCH": 594, "BSTAR": 0.0055726197, "MEAN_MOTION_DOT": 0.00239254, "MEAN_MOTION_DDOT": 0}, "tle": {"line1": "1 66335U 25253S   25340.40719731  .00239254  00000+0  55726-2 0  9997", "line2": "2 66335  43.0007  22.3071 0000819 252.9500 107.1267 15.40614696  5949"}}, "geometry": {"type": "Point", "coordinates": [14.286048926104344, -5.023840844457854]}}, {"type": "Feature", "properties": {"norad_id": 66336, "name": "STARLINK-35404", "group": "last-30-days", "lat": -40.75031881408287, "lon": -93.31046426951808, "alt_km": 429.78687210164026, "timestamp": "2025-12-06T20:37:54.810957+00:00", "meta": {"OBJECT_NAME": "STARLINK-35404", "OBJECT_ID": "2025-253T", "EPOCH": "2025-12-06T14:00:01.999872", "MEAN_MOTION": 15.47657763, "ECCENTRICITY": 9.07e-05, "INCLINATION": 43.0002, "RA_OF_ASC_NODE": 20.6781, "ARG_OF_PERICENTER": 282.2429, "MEAN_ANOMALY": 230.2907, "EPHEMERIS_TYPE": 0, "CLASSIFICATION_TYPE": "U", "NORAD_CAT_ID": 66336, "ELEMENT_SET_NO": 999, "REV_AT_EPOCH": 603, "BSTAR": -0.042761312, "MEAN_MOTION_DOT": -0.0201748, "MEAN_MOTION_DDOT": 0}, "tle": {"line1": "1 66336U 25253T   25340.58335648 -.02017480  00000+0 -42761-1 0  9991", "line2": "2 66336  43.0002  20.6781 0000907 282.2429 230.2907 15.47657763  6037"}}, "geometry": {"type": "Point", "coordinates": [-93.31046426951808, -40.75031881408287]}}, {"type": "Feature", "properties": {"norad_id": 66337, "name": "STARLINK-34783", "group": "last-30-days", "lat": 11.869358525184634, "lon": 32.671302768120384, "alt_km": 442.27890842743363, "timestamp": "2025-12-06T20:37:54.810968+00:00", "meta": {"OBJECT_NAME": "STARLINK-34783", "OBJECT_ID": "2025-253U", "EPOCH": "2025-12-06T11:13:15.378240", "MEAN_MOTION": 15.40699596, "ECCENTRICITY": 0.00010956, "INCLINATION": 43.0035, "RA_OF_ASC_NODE": 21.8982, "ARG_OF_PERICENTER": 256.5329, "MEAN_ANOMALY": 103.5406, "EPHEMERIS_TYPE": 0, "CLASSIFICATION_TYPE": "U", "NORAD_CAT_ID": 66337, "ELEMENT_SET_NO": 999, "REV_AT_EPOCH": 595, "BSTAR": 0.0022430851, "MEAN_MOTION_DOT": 0.00094563, "MEAN_MOTION_DDOT": 0}, "tle": {"line1": "1 66337U 25253U   25340.46753910  .00094563  00000+0  22431-2 0  9991", "line2": "2 66337  43.0035  21.8982 0001095 256.5329 103.5406 15.40699596  5951"}}, "geometry": {"type": "Point", "coordinates": [32.671302768120384, 11.869358525184634]}}, {"type": "Feature", "properties": {"norad_id": 66338, "name": "STARLINK-35477", "group": "last-30-days", "lat": -13.339466857791342, "lon": 4.988092791316923, "alt_km": 445.1628523251902, "timestamp": "2025-12-06T20:37:54.810980+00:00", "meta": {"OBJECT_NAME": "STARLINK-35477", "OBJECT_ID": "2025-253V", "EPOCH": "2025-12-06T12:56:17.754432", "MEAN_MOTION": 15.40731489, "ECCENTRICITY": 0.00012566, "INCLINATION": 43.0001, "RA_OF_ASC_NODE": 21.5774, "ARG_OF_PERICENTER": 245.4003, "MEAN_ANOMALY": 114.6722, "EPHEMERIS_TYPE": 0, "CLASSIFICATION_TYPE": "U", "NORAD_CAT_ID": 66338, "ELEMENT_SET_NO": 999, "REV_AT_EPOCH": 596, "BSTAR": 0.0019165354, "MEAN_MOTION_DOT": 0.0008069, "MEAN_MOTION_DDOT": 0}, "tle": {"line1": "1 66338U 25253V   25340.53909438  .00080690  00000+0  19165-2 0  9994", "line2": "2 66338  43.0001  21.5774 0001256 245.4003 114.6722 15.40731489  5969"}}, "geometry": {"type": "Point", "coordinates": [4.988092791316923, -13.339466857791342]}}]}